{
  "norad_id": 37790,
  "name": "NIGERIASAT-X",
  "history": [
    {
      "epoch": "2026-03-28T20:36:56.620224Z",
      "apogee_km": 698.5358816316038,
      "perigee_km": 682.6295657605551,
      "latitude_deg": 4.636302630837391e-05,
      "longitude_deg": -59.37211772624035,
      "height_km": 699.366691700288,
      "semi_major_axis_km": 7068.719723696079,
      "eccentricity": 0.00112512,
      "inclination_deg": 97.8506,
      "raan_deg": 76.1372,
      "arg_perigee_deg": 223.3975,
      "mean_anomaly_deg": 136.6342,
      "mean_motion_rev_day": 14.60802888
    },
    {
      "epoch": "2026-03-29T04:50:07.137600Z",
      "apogee_km": 698.5479750625937,
      "perigee_km": 682.6122591937392,
      "latitude_deg": 4.492578937402405e-05,
      "longitude_deg": 177.3213936272868,
      "height_km": 699.4868305115104,
      "semi_major_axis_km": 7068.717117128166,
      "eccentricity": 0.0011272,
      "inclination_deg": 97.8508,
      "raan_deg": 76.4621,
      "arg_perigee_deg": 222.2111,
      "mean_anomaly_deg": 137.8224,
      "mean_motion_rev_day": 14.60803696
    },
    {
      "epoch": "2026-03-30T05:29:38.687136Z",
      "apogee_km": 698.5868929353328,
      "perigee_km": 682.5663603718858,
      "latitude_deg": -3.258988327029701e-05,
      "longitude_deg": 167.4017490855823,
      "height_km": 699.8319224896754,
      "semi_major_axis_km": 7068.713626653609,
      "eccentricity": 0.0011332,
      "inclination_deg": 97.8508,
      "raan_deg": 77.4366,
      "arg_perigee_deg": 218.7131,
      "mean_anomaly_deg": 141.3259,
      "mean_motion_rev_day": 14.60804778
    }
  ]
}